DMSP 5D-3 F16 (USA 172) 
1 28054U 03048A   26176.22990807 -.00000013  00000+0  16885-4 0  9999
2 28054  98.9888 200.1114 0008050 120.0404 307.9135 14.14483490170626
METEOSAT-9 (MSG-2)      
1 28912U 05049B   26175.82105308  .00000124  00000+0  00000+0 0  9993
2 28912   9.3787  54.0944 0001986 354.4974 205.6577  1.00276585  7074
DMSP 5D-3 F17 (USA 191) 
1 29522U 06050A   26176.30149307  .00000017  00000+0  31196-4 0  9991
2 29522  98.7378 182.7056 0010853  38.2366 321.9576 14.14993797 13571
FENGYUN 3A              
1 32958U 08026A   26175.58906841  .00000050  00000+0  44440-4 0  9999
2 32958  98.6884 116.2839 0009833 104.5207 255.7061 14.19572448936452
GOES 14                 
1 35491U 09033A   26176.26693807 -.00000310  00000+0  00000+0 0  9993
2 35491   1.7115  82.9560 0002205  17.4276  46.2449  1.00108842  6677
DMSP 5D-3 F18 (USA 210) 
1 35951U 09057A   26176.27340301  .00000251  00000+0  15285-3 0  9997
2 35951  98.9040 157.0250 0010132 224.0405 135.9962 14.14901197860735
EWS-G2 (GOES 15)        
1 36411U 10008A   26176.01066831  .00000029  00000+0  00000+0 0  9990
2 36411   1.2993  82.7471 0005214  42.2541 215.5751  1.00267909 59712
COMS 1                  
1 36744U 10032A   26175.82053308  .00000074  00000+0  00000+0 0  9999
2 36744   4.8248  75.2690 0011867  12.6634 163.4218  0.99165519 51169
FENGYUN 3B              
1 37214U 10059A   26176.30997591 -.00000359  00000+0 -16239-3 0  9999
2 37214  98.9620 222.3592 0022377 160.9379 336.5199 14.14841140808576
SUOMI NPP               
1 37849U 11061A   26176.23497863  .00000063  00000+0  51113-4 0  9997
2 37849  98.7954 117.0560 0001073 344.6382  15.4761 14.19518984759584
METEOSAT-10 (MSG-3)     
1 38552U 12035B   26175.95462669 -.00000001  00000+0  00000+0 0  9992
2 38552   4.6902  60.9889 0001719   6.8463 189.1353  1.00268164 50936
METOP-B                 
1 38771U 12049A   26176.28459484  .00000092  00000+0  61845-4 0  9996
2 38771  98.6500 227.6222 0001727 356.4356   3.6809 14.21441366714413
INSAT-3D                
1 39216U 13038B   26176.26546472 -.00000331  00000+0  00000+0 0  9990
2 39216   1.9473  82.4502 0001117 359.4135  56.6283  1.00272521 47166
FENGYUN 3C              
1 39260U 13052A   26176.24193420  .00000087  00000+0  65425-4 0  9998
2 39260  98.4982 149.7470 0014779   5.1584 354.9740 14.15756752659707
METEOR-M 2              
1 40069U 14037A   26176.24045067  .00000157  00000+0  90853-4 0  9995
2 40069  98.5116 151.6935 0006402  24.3480 335.7999 14.21463836620465
HIMAWARI-8              
1 40267U 14060A   26176.26763140 -.00000266  00000+0  00000+0 0  9994
2 40267   0.0177 303.6376 0001521 152.5526  54.2149  1.00270976 42844
FENGYUN 2G              
1 40367U 14090A   26176.16919925 -.00000297  00000+0  00000+0 0  9995
2 40367   5.6596  72.7239 0003592 151.5998 209.5585  1.00269529 42082
METEOSAT-11 (MSG-4)     
1 40732U 15034A   26176.17039400  .00000069  00000+0  00000+0 0  9998
2 40732   3.2206  71.0589 0002283 347.1453 285.9137  1.00265566  7297
ELEKTRO-L 2             
1 41105U 15074A   26174.95372752 -.00000116  00000+0  00000+0 0  9995
2 41105   6.7110  70.4435 0000765 277.7123 252.7626  1.00271133 38579
SENTINEL-3A             
1 41335U 16011A   26176.28150161  .00000091  00000+0  55776-4 0  9994
2 41335  98.6246 243.5489 0001431  97.4312 262.7031 14.26734732539213
INSAT-3DR               
1 41752U 16054A   26176.06711404 -.00000068  00000+0  00000+0 0  9993
2 41752   0.1261  86.2815 0010123 187.2212  97.8369  1.00272293 35894
HIMAWARI-9              
1 41836U 16064A   26176.26771807  .00000000  00000+0  00000+0 0  9997
2 41836   0.0229  28.7375 0001208  85.3690  36.4471  1.00269310 35297
GOES 16                 
1 41866U 16071A   26176.14776825 -.00000082  00000+0  00000+0 0  9991
2 41866   0.3618  85.5326 0000527   2.1377 134.1199  1.00272015 35181
FENGYUN 4A              
1 41882U 16077A   26176.33552848 -.00000349  00000+0  00000+0 0  9999
2 41882   2.3441  80.2031 0008252 152.3870 285.2960  1.00265121 35015
CYGFM05                 
1 41884U 16078A   26175.48967430  .00021183  00000+0  28403-3 0  9993
2 41884  34.9557 212.2226 0007938 219.2518 140.7631 15.56945562529895
CYGFM04                 
1 41885U 16078B   26176.26833217  .00033557  00000+0  37129-3 0  9999
2 41885  34.9305 174.3442 0007286 262.7959  97.1938 15.61918517530267
CYGFM02                 
1 41886U 16078C   26176.25338001  .00040518  00000+0  39671-3 0  9999
2 41886  34.9386 168.7415 0008276 264.7857  95.1925 15.64978425530433
CYGFM01                 
1 41887U 16078D   26175.79563247  .00022072  00000+0  28822-3 0  9991
2 41887  34.9388 211.1910 0007684 216.4243 143.5960 15.57646568529891
CYGFM08                 
1 41888U 16078E   26176.25380578  .00030568  00000+0  35876-3 0  9994
2 41888  34.9413 187.5165 0009113 248.6495 111.3258 15.60390578530238
CYGFM07                 
1 41890U 16078G   26176.27642713  .00031030  00000+0  36294-3 0  9991
2 41890  34.9428 175.7004 0007673 262.6123  97.3730 15.60492294530260
CYGFM03                 
1 41891U 16078H   26176.24747049  .00031083  00000+0  36374-3 0  9994
2 41891  34.9384 177.8280 0007325 251.1645 108.8286 15.60482791530239
FENGYUN 3D              
1 43010U 17072A   26176.25195569  .00000315  00000+0  17052-3 0  9995
2 43010  99.0128 150.8198 0002385  49.4928 310.6455 14.19742028446135
NOAA 20 (JPSS-1)        
1 43013U 17073A   26176.24823677  .00000034  00000+0  37318-4 0  9992
2 43013  98.7772 115.6392 0000559 131.5924 228.5300 14.19513139445611
GOES 17                 
1 43226U 18022A   26176.29337617 -.00000173  00000+0  00000+0 0  9990
2 43226   0.9576  85.5741 0000638  22.4700 181.4896  1.00272936 30503
SENTINEL-3B             
1 43437U 18039A   26176.18451976  .00000095  00000+0  57471-4 0  9996
2 43437  98.6245 243.6020 0000735 104.6006 255.5256 14.26736833425268
FENGYUN 2H              
1 43491U 18050A   26175.97036458 -.00000122  00000+0  00000+0 0  9992
2 43491   3.0521  78.9902 0001670 126.5778 136.2280  1.00269674 29513
METOP-C                 
1 43689U 18087A   26176.23298019  .00000079  00000+0  55995-4 0  9992
2 43689  98.6641 235.6894 0002010 119.2975 240.8404 14.21514070395970
GEO-KOMPSAT-2A          
1 43823U 18100A   26176.26520472 -.00000334  00000+0  00000+0 0  9999
2 43823   0.0441 163.0128 0002449 287.3914  46.7318  1.00270777 27712
METEOR-M2 2             
1 44387U 19038A   26176.25272899  .00000059  00000+0  45239-4 0  9993
2 44387  98.9147 163.6571 0001762  36.9153 323.2146 14.24367750362447
ARKTIKA-M 1             
1 47719U 21016A   26175.46896265 -.00000298  00000+0  00000+0 0  9993
2 47719  63.2470  56.5720 7291000 269.9787  14.5750  2.00620016 38936
FENGYUN 3E              
1 49008U 21062A   26176.30539260 -.00000185  00000+0 -66562-4 0  9996
2 49008  98.7497 179.6229 0002821  72.3849 287.7635 14.19904048257731
GOES 18                 
1 51850U 22021A   26176.26503977  .00000106  00000+0  00000+0 0  9992
2 51850   0.0211 173.6605 0000639 309.9017 108.2471  1.00272680  6678
NOAA 21 (JPSS-2)        
1 54234U 22150A   26176.28085622  .00000040  00000+0  39854-4 0  9999
2 54234  98.7062 114.9343 0002175 141.5859 218.5473 14.19537907187692
METEOSAT-12 (MTG-I1)    
1 54743U 22170C   26176.23516927  .00000002  00000+0  00000+0 0  9992
2 54743   0.7474  24.2867 0003592  71.3838 262.0180  1.00275041 13053
TIANMU-1 03             
1 55973U 23039A   26176.26294087  .00017402  00000+0  34031-3 0  9993
2 55973  97.5234 350.5496 0004000  79.8279 280.3421 15.47496115182081
TIANMU-1 04             
1 55974U 23039B   26176.31392429  .00018391  00000+0  35202-3 0  9998
2 55974  97.5171 349.7567 0004489  73.3820 286.7923 15.48104090182102
TIANMU-1 05             
1 55975U 23039C   26176.30876586  .00017853  00000+0  34996-3 0  9990
2 55975  97.5214 350.2092 0004025  94.9588 265.2121 15.47422317182079
TIANMU-1 06             
1 55976U 23039D   26176.31781157  .00018362  00000+0  35267-3 0  9999
2 55976  97.5224 350.8623 0004181  89.9836 270.1893 15.48006267182108
FENGYUN 3G              
1 56232U 23055A   26176.27909212  .00026961  00000+0  42981-3 0  9997
2 56232  49.9935 304.3173 0007211 330.1964  29.8591 15.52964101181263
METEOR-M2 3             
1 57166U 23091A   26176.31915875 -.00000010  00000+0  14586-4 0  9990
2 57166  98.6079 231.1311 0004749 135.4529 224.7033 14.24047374155672
TIANMU-1 07             
1 57399U 23101A   26176.34158464  .00007673  00000+0  26757-3 0  9999
2 57399  97.2594 226.8226 0004336 104.7675 255.4047 15.29894257162890
TIANMU-1 08             
1 57400U 23101B   26176.30820374  .00007089  00000+0  24733-3 0  9997
2 57400  97.2583 226.5593 0005714  95.8217 264.3676 15.29897964162882
TIANMU-1 09             
1 57401U 23101C   26176.29144932  .00007608  00000+0  26500-3 0  9996
2 57401  97.2541 225.9546 0004898 108.6711 251.5062 15.29931004162883
TIANMU-1 10             
1 57402U 23101D   26176.25924172  .00007159  00000+0  24968-3 0  9992
2 57402  97.2621 226.9819 0006428 105.6434 254.5516 15.29902678162878
FENGYUN 3F              
1 57490U 23111A   26176.28911894  .00000033  00000+0  35751-4 0  9997
2 57490  98.6834 246.1469 0001560  87.2020 272.9335 14.19940300150017
ARKTIKA-M 2             
1 58584U 23198A   26174.74078844  .00000167  00000+0  00000+0 0  9997
2 58584  63.2421 153.6337 6904949 267.3888  18.7567  2.00611379 18452
TIANMU-1 11             
1 58645U 23205A   26176.31012100  .00006182  00000+0  23532-3 0  9994
2 58645  97.3447 197.7393 0007961 348.0388  12.0661 15.27071619138760
TIANMU-1 12             
1 58646U 23205B   26176.28067212  .00006593  00000+0  25113-3 0  9998
2 58646  97.3436 197.4645 0005757 332.5371  27.5563 15.27038165138746
TIANMU-1 13             
1 58647U 23205C   26176.31363200  .00006295  00000+0  24100-3 0  9993
2 58647  97.3464 197.7707 0005147 306.0442  54.0319 15.26890982138744
